{
  "norad_id": 59847,
  "name": "STARLINK-31889",
  "history": [
    {
      "epoch": "2026-04-15T13:53:51.609120Z",
      "apogee_km": 483.53944805908213,
      "perigee_km": 482.55143778730144,
      "latitude_deg": -4.032098368290282e-05,
      "longitude_deg": 14.242206039539537,
      "height_km": 482.59080132631215,
      "semi_major_axis_km": 6861.182442923191,
      "eccentricity": 7.2e-05,
      "inclination_deg": 42.9998,
      "raan_deg": 66.4464,
      "arg_perigee_deg": 297.8379,
      "mean_anomaly_deg": 62.2399,
      "mean_motion_rev_day": 15.2758122
    },
    {
      "epoch": "2026-04-16T13:26:12.431040Z",
      "apogee_km": 483.56852616991455,
      "perigee_km": 482.543463936453,
      "latitude_deg": 5.472718975576756e-05,
      "longitude_deg": 14.651834109297324,
      "height_km": 482.79775618799823,
      "semi_major_axis_km": 6861.192995053183,
      "eccentricity": 7.47e-05,
      "inclination_deg": 43.0013,
      "raan_deg": 60.9094,
      "arg_perigee_deg": 273.8611,
      "mean_anomaly_deg": 86.2156,
      "mean_motion_rev_day": 15.27577696
    },
    {
      "epoch": "2026-04-17T22:23:29.565312Z",
      "apogee_km": 484.19780403693676,
      "perigee_km": 481.96392872400065,
      "latitude_deg": 2.280579343856229e-05,
      "longitude_deg": -128.78189470092062,
      "height_km": 482.43759401767244,
      "semi_major_axis_km": 6861.217866380468,
      "eccentricity": 0.00016279,
      "inclination_deg": 43.0001,
      "raan_deg": 53.1505,
      "arg_perigee_deg": 292.0952,
      "mean_anomaly_deg": 67.9727,
      "mean_motion_rev_day": 15.2756939
    },
    {
      "epoch": "2026-04-18T12:30:53.642016Z",
      "apogee_km": 483.56244694455836,
      "perigee_km": 482.5450695789232,
      "latitude_deg": 1.5064563264612729e-05,
      "longitude_deg": 15.469251952312188,
      "height_km": 482.85946842015375,
      "semi_major_axis_km": 6861.1907582617405,
      "eccentricity": 7.414e-05,
      "inclination_deg": 42.9996,
      "raan_deg": 49.832,
      "arg_perigee_deg": 266.6602,
      "mean_anomaly_deg": 93.4165,
      "mean_motion_rev_day": 15.27578443
    },
    {
      "epoch": "2026-04-19T12:03:14.501952Z",
      "apogee_km": 483.5532471986435,
      "perigee_km": 482.5590603106639,
      "latitude_deg": -2.575418900524118e-06,
      "longitude_deg": 15.875698478507243,
      "height_km": 482.6555421915349,
      "semi_major_axis_km": 6861.193153754653,
      "eccentricity": 7.245e-05,
      "inclination_deg": 43.0034,
      "raan_deg": 44.2921,
      "arg_perigee_deg": 290.8693,
      "mean_anomaly_deg": 69.2081,
      "mean_motion_rev_day": 15.27577643
    },
    {
      "epoch": "2026-04-20T11:35:35.990016Z",
      "apogee_km": 483.69032931351376,
      "perigee_km": 482.4506463446123,
      "latitude_deg": 1.3025171408817925e-05,
      "longitude_deg": 16.28135502780715,
      "height_km": 482.7058845992512,
      "semi_major_axis_km": 6861.207487829062,
      "eccentricity": 9.034e-05,
      "inclination_deg": 43.0029,
      "raan_deg": 38.754,
      "arg_perigee_deg": 283.1674,
      "mean_anomaly_deg": 76.9077,
      "mean_motion_rev_day": 15.27572856
    }
  ]
}